{
  "links" : {
    "next" : "https://api.nasa.gov/neo/rest/v1/feed?start_date=2014-10-16&end_date=2014-10-16&detailed=true&api_key=t0TVs3DtDT2H8Oy2Zy8m2eVrNsAVKAexjcZXUckd",
    "prev" : "https://api.nasa.gov/neo/rest/v1/feed?start_date=2014-10-14&end_date=2014-10-14&detailed=true&api_key=t0TVs3DtDT2H8Oy2Zy8m2eVrNsAVKAexjcZXUckd",
    "self" : "https://api.nasa.gov/neo/rest/v1/feed?start_date=2014-10-15&end_date=2014-10-15&detailed=true&api_key=t0TVs3DtDT2H8Oy2Zy8m2eVrNsAVKAexjcZXUckd"
  },
  "element_count" : 8,
  "near_earth_objects" : {
    "2014-10-15" : [ {
      "links" : {
        "self" : "https://api.nasa.gov/neo/rest/v1/neo/3761030?api_key=t0TVs3DtDT2H8Oy2Zy8m2eVrNsAVKAexjcZXUckd"
      },
      "neo_reference_id" : "3761030",
      "name" : "(2016 TQ56)",
      "nasa_jpl_url" : "http://ssd.jpl.nasa.gov/sbdb.cgi?sstr=3761030",
      "absolute_magnitude_h" : 24.0,
      "estimated_diameter" : {
        "kilometers" : {
          "estimated_diameter_min" : 0.0421264611,
          "estimated_diameter_max" : 0.0941976306
        },
        "meters" : {
          "estimated_diameter_min" : 42.1264610556,
          "estimated_diameter_max" : 94.1976305719
        },
        "miles" : {
          "estimated_diameter_min" : 0.0261761612,
          "estimated_diameter_max" : 0.0585316759
        },
        "feet" : {
          "estimated_diameter_min" : 138.2101784897,
          "estimated_diameter_max" : 309.0473542854
        }
      },
      "is_potentially_hazardous_asteroid" : false,
      "close_approach_data" : [ {
        "close_approach_date" : "2014-10-15",
        "epoch_date_close_approach" : 1413356400000,
        "relative_velocity" : {
          "kilometers_per_second" : "12.9176068868",
          "kilometers_per_hour" : "46503.3847924177",
          "miles_per_hour" : "28895.3948450442"
        },
        "miss_distance" : {
          "astronomical" : "0.0832148213",
          "lunar" : "32.3705635071",
          "kilometers" : "12448760",
          "miles" : "7735301"
        },
        "orbiting_body" : "Earth"
      } ],
      "orbital_data" : {
        "orbit_id" : "9",
        "orbit_determination_date" : "2017-04-06 08:23:02",
        "orbit_uncertainty" : "7",
        "minimum_orbit_intersection" : ".0264789",
        "jupiter_tisserand_invariant" : "4.285",
        "epoch_osculation" : "2458000.5",
        "eccentricity" : ".4324546510220908",
        "semi_major_axis" : "1.57750128271364",
        "inclination" : "6.698385823798901",
        "ascending_node_longitude" : "207.0315420007365",
        "orbital_period" : "723.6907280250618",
        "perihelion_distance" : ".8953035160108122",
        "perihelion_argument" : "116.7517754282844",
        "aphelion_distance" : "2.259699049416468",
        "perihelion_time" : "2458352.153221879558",
        "mean_anomaly" : "185.0700817708187",
        "mean_motion" : ".4974500654201183",
        "equinox" : "J2000"
      }
    }, {
      "links" : {
        "self" : "https://api.nasa.gov/neo/rest/v1/neo/3565395?api_key=t0TVs3DtDT2H8Oy2Zy8m2eVrNsAVKAexjcZXUckd"
      },
      "neo_reference_id" : "3565395",
      "name" : "(2011 JW10)",
      "nasa_jpl_url" : "http://ssd.jpl.nasa.gov/sbdb.cgi?sstr=3565395",
      "absolute_magnitude_h" : 23.1,
      "estimated_diameter" : {
        "kilometers" : {
          "estimated_diameter_min" : 0.063760979,
          "estimated_diameter_max" : 0.1425738833
        },
        "meters" : {
          "estimated_diameter_min" : 63.7609789875,
          "estimated_diameter_max" : 142.5738833281
        },
        "miles" : {
          "estimated_diameter_min" : 0.0396192233,
          "estimated_diameter_max" : 0.0885912765
        },
        "feet" : {
          "estimated_diameter_min" : 209.1895703015,
          "estimated_diameter_max" : 467.7620993781
        }
      },
      "is_potentially_hazardous_asteroid" : false,
      "close_approach_data" : [ {
        "close_approach_date" : "2014-10-15",
        "epoch_date_close_approach" : 1413356400000,
        "relative_velocity" : {
          "kilometers_per_second" : "12.6506242654",
          "kilometers_per_hour" : "45542.2473552733",
          "miles_per_hour" : "28298.1814191697"
        },
        "miss_distance" : {
          "astronomical" : "0.2233429257",
          "lunar" : "86.8804016113",
          "kilometers" : "33411626",
          "miles" : "20761022"
        },
        "orbiting_body" : "Earth"
      } ],
      "orbital_data" : {
        "orbit_id" : "11",
        "orbit_determination_date" : "2017-09-22 06:48:44",
        "orbit_uncertainty" : "0",
        "minimum_orbit_intersection" : ".199083",
        "jupiter_tisserand_invariant" : "4.883",
        "epoch_osculation" : "2458000.5",
        "eccentricity" : ".215015341799917",
        "semi_major_axis" : "1.310150950464507",
        "inclination" : "21.59624469514587",
        "ascending_node_longitude" : "219.3392875156611",
        "orbital_period" : "547.7475342927005",
        "perihelion_distance" : "1.028448396040895",
        "perihelion_argument" : "88.96478015231004",
        "aphelion_distance" : "1.591853504888119",
        "perihelion_time" : "2457968.108769905368",
        "mean_anomaly" : "21.28871807542681",
        "mean_motion" : ".6572370982278606",
        "equinox" : "J2000"
      }
    } ]
  }
}